{"type": "FeatureCollection", "features": [ {"type": "Feature", "properties": {"norad_id": 43058, "name": "GSAT0218 (GALILEO 22)", "group": "galileo", "lat": -33.0650220149962, "lon": 73.3903084736487, "alt_km": 23225.759469826742, "timestamp": "2025-12-21T18:54:58.759751+00:00", "meta": {"OBJECT_NAME": "GSAT0218 (GALILEO 22)", "OBJECT_ID": "2017-079D", "EPOCH": "2025-12-20T06:05:26.226528", "MEAN_MOTION": 1.70474115, "ECCENTRICITY": 0.00027735, "INCLINATION": 55.1262, "RA_OF_ASC_NODE": 226.4264, "ARG_OF_PERICENTER": 307.8467, "MEAN_ANOMALY": 52.2377, "EPHEMERIS_TYPE": 0, "CLASSIFICATION_TYPE": "U", "NORAD_CAT_ID": 43058, "ELEMENT_SET_NO": 999, "REV_AT_EPOCH": 4996, "BSTAR": 0, "MEAN_MOTION_DOT": 7e-07, "MEAN_MOTION_DDOT": 0}, "tle": {"line1": "1 43058U 17079D   25354.25377577  .00000070  00000+0  00000+0 0  9991", "line2": "2 43058  55.1262 226.4264 0002773 307.8467  52.2377  1.70474115 49967"}}, "geometry": {"type": "Point", "coordinates": [73.3903084736487, -33.0650220149962]}}, {"type": "Feature", "properties": {"norad_id": 43564, "name": "GSAT0221 (GALILEO 25)", "group": "galileo", "lat": -55.48439136536212, "lon": -82.97555518477584, "alt_km": 23208.043558724865, "timestamp": "2025-12-21T18:54:58.759762+00:00", "meta": {"OBJECT_NAME": "GSAT0221 (GALILEO 25)", "OBJECT_ID": "2018-060A", "EPOCH": "2025-12-19T13:40:28.820064", "MEAN_MOTION": 1.70475889, "ECCENTRICITY": 0.0006721, "INCLINATION": 57.2264, "RA_OF_ASC_NODE": 346.6332, "ARG_OF_PERICENTER": 285.6827, "MEAN_ANOMALY": 74.2548, "EPHEMERIS_TYPE": 0, "CLASSIFICATION_TYPE": "U", "NORAD_CAT_ID": 43564, "ELEMENT_SET_NO": 999, "REV_AT_EPOCH": 4610, "BSTAR": 0, "MEAN_MOTION_DOT": -7.2e-07, "MEAN_MOTION_DDOT": 0}, "tle": {"line1": "1 43564U 18060A   25353.56977801 -.00000072  00000+0  00000+0 0  9996", "line2": "2 43564  57.2264 346.6332 0006721 285.6827  74.2548  1.70475889 46101"}}, "geometry": {"type": "Point", "coordinates": [-82.97555518477584, -55.48439136536212]}}, {"type": "Feature", "properties": {"norad_id": 43565, "name": "GSAT0222 (GALILEO 26)", "group": "galileo", "lat": 27.42485616541617, "lon": 147.036898701498, "alt_km": 23227.648539253965, "timestamp": "2025-12-21T18:54:58.759773+00:00", "meta": {"OBJECT_NAME": "GSAT0222 (GALILEO 26)", "OBJECT_ID": "2018-060B", "EPOCH": "2025-12-20T23:05:42.344160", "MEAN_MOTION": 1.70475571, "ECCENTRICITY": 0.0006061, "INCLINATION": 57.2294, "RA_OF_ASC_NODE": 346.5987, "ARG_OF_PERICENTER": 266.4874, "MEAN_ANOMALY": 93.4525, "EPHEMERIS_TYPE": 0, "CLASSIFICATION_TYPE": "U", "NORAD_CAT_ID": 43565, "ELEMENT_SET_NO": 999, "REV_AT_EPOCH": 4617, "BSTAR": 0, "MEAN_MOTION_DOT": -6.8e-07, "MEAN_MOTION_DDOT": 0}, "tle": {"line1": "1 43565U 18060B   25354.96229565 -.00000068  00000+0  00000+0 0  9994", "line2": "2 43565  57.2294 346.5987 0006061 266.4874  93.4525  1.70475571 46179"}}, "geometry": {"type": "Point", "coordinates": [147.036898701498, 27.42485616541617]}}, {"type": "Feature", "properties": {"norad_id": 43566, "name": "GSAT0219 (GALILEO 23)", "group": "galileo", "lat": 9.359010803944825, "lon": -7.337703976295967, "alt_km": 23218.41112582275, "timestamp": "2025-12-21T18:54:58.759784+00:00", "meta": {"OBJECT_NAME": "GSAT0219 (GALILEO 23)", "OBJECT_ID": "2018-060C", "EPOCH": "2025-12-18T20:05:25.027008", "MEAN_MOTION": 1.70475846, "ECCENTRICITY": 0.00058667, "INCLINATION": 57.2292, "RA_OF_ASC_NODE": 346.6575, "ARG_OF_PERICENTER": 289.8664, "MEAN_ANOMALY": 70.0835, "EPHEMERIS_TYPE": 0, "CLASSIFICATION_TYPE": "U", "NORAD_CAT_ID": 43566, "ELEMENT_SET_NO": 999, "REV_AT_EPOCH": 4611, "BSTAR": 0, "MEAN_MOTION_DOT": -7.4e-07, "MEAN_MOTION_DDOT": 0}, "tle": {"line1": "1 43566U 18060C   25352.83709522 -.00000074  00000+0  00000+0 0  9992", "line2": "2 43566  57.2292 346.6575 0005866 289.8664  70.0835  1.70475846 46114"}}, "geometry": {"type": "Point", "coordinates": [-7.337703976295967, 9.359010803944825]}}, {"type": "Feature", "properties": {"norad_id": 43567, "name": "GSAT0220 (GALILEO 24)", "group": "galileo", "lat": -43.83920307815719, "lon": -155.21537174352773, "alt_km": 23216.216094584102, "timestamp": "2025-12-21T18:54:58.759794+00:00", "meta": {"OBJECT_NAME": "GSAT0220 (GALILEO 24)", "OBJECT_ID": "2018-060D", "EPOCH": "2025-12-19T15:28:13.770912", "MEAN_MOTION": 1.70475932, "ECCENTRICITY": 0.000607, "INCLINATION": 57.2288, "RA_OF_ASC_NODE": 346.6359, "ARG_OF_PERICENTER": 288.3471, "MEAN_ANOMALY": 71.5983, "EPHEMERIS_TYPE": 0, "CLASSIFICATION_TYPE": "U", "NORAD_CAT_ID": 43567, "ELEMENT_SET_NO": 999, "REV_AT_EPOCH": 4611, "BSTAR": 0, "MEAN_MOTION_DOT": -7.2e-07, "MEAN_MOTION_DDOT": 0}, "tle": {"line1": "1 43567U 18060D   25353.64460383 -.00000072  00000+0  00000+0 0  9990", "line2": "2 43567  57.2288 346.6359 0006070 288.3471  71.5983  1.70475932 46114"}}, "geometry": {"type": "Point", "coordinates": [-155.21537174352773, -43.83920307815719]}}, {"type": "Feature", "properties": {"norad_id": 49809, "name": "GSAT0223 (GALILEO 27)", "group": "galileo", "lat": -27.795208718907432, "lon": -33.40300681286685, "alt_km": 23221.43641091828, "timestamp": "2025-12-21T18:54:58.759805+00:00", "meta": {"OBJECT_NAME": "GSAT0223 (GALILEO 27)", "OBJECT_ID": "2021-116A", "EPOCH": "2025-12-19T11:56:47.637312", "MEAN_MOTION": 1.7047609, "ECCENTRICITY": 0.00044147, "INCLINATION": 57.2179, "RA_OF_ASC_NODE": 346.5305, "ARG_OF_PERICENTER": 254.6091, "MEAN_ANOMALY": 105.9777, "EPHEMERIS_TYPE": 0, "CLASSIFICATION_TYPE": "U", "NORAD_CAT_ID": 49809, "ELEMENT_SET_NO": 999, "REV_AT_EPOCH": 2512, "BSTAR": 0, "MEAN_MOTION_DOT": -7.2e-07, "MEAN_MOTION_DDOT": 0}, "tle": {"line1": "1 49809U 21116A   25353.49777358 -.00000072  00000+0  00000+0 0  9997", "line2": "2 49809  57.2179 346.5305 0004414 254.6091 105.9777  1.70476090 25129"}}, "geometry": {"type": "Point", "coordinates": [-33.40300681286685, -27.795208718907432]}}, {"type": "Feature", "properties": {"norad_id": 49810, "name": "GSAT0224 (GALILEO 28)", "group": "galileo", "lat": 55.56225341273312, "lon": 56.4920654119484, "alt_km": 23226.69459694549, "timestamp": "2025-12-21T18:54:58.759817+00:00", "meta": {"OBJECT_NAME": "GSAT0224 (GALILEO 28)", "OBJECT_ID": "2021-116B", "EPOCH": "2025-12-20T04:43:34.979232", "MEAN_MOTION": 1.70476091, "ECCENTRICITY": 0.0003747, "INCLINATION": 57.2188, "RA_OF_ASC_NODE": 346.5104, "ARG_OF_PERICENTER": 259.7047, "MEAN_ANOMALY": 282.5653, "EPHEMERIS_TYPE": 0, "CLASSIFICATION_TYPE": "U", "NORAD_CAT_ID": 49810, "ELEMENT_SET_NO": 999, "REV_AT_EPOCH": 2515, "BSTAR": 0, "MEAN_MOTION_DOT": -7e-07, "MEAN_MOTION_DDOT": 0}, "tle": {"line1": "1 49810U 21116B   25354.19693263 -.00000070  00000+0  00000+0 0  9997", "line2": "2 49810  57.2188 346.5104 0003747 259.7047 282.5653  1.70476091 25152"}}, "geometry": {"type": "Point", "coordinates": [56.4920654119484, 55.56225341273312]}}, {"type": "Feature", "properties": {"norad_id": 59598, "name": "GSAT0225 (GALILEO 29)", "group": "galileo", "lat": 50.95012215866569, "lon": 165.60722802178014, "alt_km": 23218.696489445818, "timestamp": "2025-12-21T18:54:58.759828+00:00", "meta": {"OBJECT_NAME": "GSAT0225 (GALILEO 29)", "OBJECT_ID": "2024-079A", "EPOCH": "2025-12-19T07:40:30.040032", "MEAN_MOTION": 1.7047502, "ECCENTRICITY": 0.0002191, "INCLINATION": 55.0052, "RA_OF_ASC_NODE": 106.1117, "ARG_OF_PERICENTER": 185.2617, "MEAN_ANOMALY": 171.1938, "EPHEMERIS_TYPE": 0, "CLASSIFICATION_TYPE": "U", "NORAD_CAT_ID": 59598, "ELEMENT_SET_NO": 999, "REV_AT_EPOCH": 1024, "BSTAR": 0, "MEAN_MOTION_DOT": -6e-08, "MEAN_MOTION_DDOT": 0}, "tle": {"line1": "1 59598U 24079A   25353.31979213 -.00000006  00000+0  00000+0 0  9996", "line2": "2 59598  55.0052 106.1117 0002191 185.2617 171.1938  1.70475020 10248"}}, "geometry": {"type": "Point", "coordinates": [165.60722802178014, 50.95012215866569]}}, {"type": "Feature", "properties": {"norad_id": 59600, "name": "GSAT0227 (GALILEO 30)", "group": "galileo", "lat": -32.630174288853695, "lon": 79.42681748199027, "alt_km": 23234.050284608504, "timestamp": "2025-12-21T18:54:58.759839+00:00", "meta": {"OBJECT_NAME": "GSAT0227 (GALILEO 30)", "OBJECT_ID": "2024-079C", "EPOCH": "2025-12-21T06:26:54.419424", "MEAN_MOTION": 1.70474886, "ECCENTRICITY": 0.00028696, "INCLINATION": 55.0016, "RA_OF_ASC_NODE": 106.0558, "ARG_OF_PERICENTER": 117.1813, "MEAN_ANOMALY": 242.8188, "EPHEMERIS_TYPE": 0, "CLASSIFICATION_TYPE": "U", "NORAD_CAT_ID": 59600, "ELEMENT_SET_NO": 999, "REV_AT_EPOCH": 1033, "BSTAR": 0, "MEAN_MOTION_DOT": 1e-08, "MEAN_MOTION_DDOT": 0}, "tle": {"line1": "1 59600U 24079C   25355.26868541  .00000001  00000+0  00000+0 0  9991", "line2": "2 59600  55.0016 106.0558 0002869 117.1813 242.8188  1.70474886 10336"}}, "geometry": {"type": "Point", "coordinates": [79.42681748199027, -32.630174288853695]}}, {"type": "Feature", "properties": {"norad_id": 61182, "name": "GSAT0232 (GALILEO 32)", "group": "galileo", "lat": 21.702266191856307, "lon": 30.159735295736215, "alt_km": 23216.236889258907, "timestamp": "2025-12-21T18:54:58.759851+00:00", "meta": {"OBJECT_NAME": "GSAT0232 (GALILEO 32)", "OBJECT_ID": "2024-167A", "EPOCH": "2025-12-21T05:44:27.225600", "MEAN_MOTION": 1.70473624, "ECCENTRICITY": 0.0001881, "INCLINATION": 55.2384, "RA_OF_ASC_NODE": 226.1977, "ARG_OF_PERICENTER": 205.7333, "MEAN_ANOMALY": 330.6739, "EPHEMERIS_TYPE": 0, "CLASSIFICATION_TYPE": "U", "NORAD_CAT_ID": 61182, "ELEMENT_SET_NO": 999, "REV_AT_EPOCH": 784, "BSTAR": 0, "MEAN_MOTION_DOT": 7.3e-07, "MEAN_MOTION_DDOT": 0}, "tle": {"line1": "1 61182U 24167A   25355.23920400  .00000073  00000+0  00000+0 0  9996", "line2": "2 61182  55.2384 226.1977 0001881 205.7333 330.6739  1.70473624  7846"}}, "geometry": {"type": "Point", "coordinates": [30.159735295736215, 21.702266191856307]}}]}